satname,norad_id,inclination_deg,eccentricity,mean_motion_rev_per_day,perigee_km,apogee_km,l1,l2
STARLINK-1260,45404,53.1608,0.0001685,15.3018457,474.1063434184298,476.41593859194927,1 45404U 20019AW  26071.44095354  .00000514  00000+0  29487-4 0  9992,2 45404  53.1608 116.4661 0001685  81.1331 278.9860 15.30184570330396
STARLINK-1263,45405,53.16,0.0001378,15.30182778,474.3220926881713,476.2108906904805,1 45405U 20019AX  26071.49468239 -.00003130  00000+0 -93646-4 0  9991,2 45405  53.1600 116.2417 0001378  97.9509 262.1648 15.30182778330406
STARLINK-1265,45406,53.1599,0.0001258,15.30194342,474.36980942394257,476.0941170550923,1 45406U 20019AY  26071.50943645  .00002353  00000+0  91576-4 0  9997,2 45406  53.1599 116.2494 0001258  94.0865 266.0279 15.30194342330402
STARLINK-1278,45408,53.0448,0.0002488,15.566651,395.6309713066639,399.0024370698684,1 45408U 20019BA  26072.00002314  .00138819  00000+0  18859-2 0  9992,2 45408  53.0448 114.3600 0002488  52.6756 350.8822 15.56665100  5935
STARLINK-1296,45412,53.1599,0.0001514,15.30182128,474.23082692677326,476.3060380917368,1 45412U 20019BE  26071.50311883 -.00001130  00000+0 -26038-4 0  9992,2 45412  53.1599 116.1813 0001514  83.4857 276.6316 15.30182128330409
STARLINK-1298,45413,53.0335,0.0004701,15.99305426,273.2164146692321,279.4729583508888,1 45413U 20019BF  26072.00002314  .00304945  49832-4  60936-3 0  9998,2 45413  53.0335  36.8059 0004701  44.1580  16.9165 15.99305426  5943
STARLINK-1309,45414,53.0672,0.000634,15.55337031,396.8750161634516,405.4711813686872,1 45414U 20019BG  26071.39142398  .00052519  00000+0  76143-3 0  9990,2 45414  53.0672 110.5488 0006340  38.1061 322.0397 15.55337031330456
STARLINK-1316,45415,53.1601,0.0001175,15.30185921,474.4518332902999,476.06238090546776,1 45415U 20019BH  26071.35247699  .00000002  00000+0  12204-4 0  9996,2 45415  53.1601 116.9362 0001175 106.4943 253.6187 15.30185921330403
STARLINK-1286,45417,53.0486,0.0003318,15.51107941,411.23655323773164,415.7434769249403,1 45417U 20019BK  26071.50591019  .00033226  00000+0  56574-3 0  9994,2 45417  53.0486 117.1871 0003318  66.1713 293.9642 15.51107941330661
STARLINK-1308,45419,53.0542,0.0002721,15.51156242,411.50106267870797,415.1969893740725,1 45419U 20019BM  26071.45343429  .00091744  00000+0  15345-2 0  9999,2 45419  53.0542 138.8274 0002721  26.9054 333.2096 15.51156242330100
STARLINK-1329,45531,53.0505,5.6e-05,15.56914204,396.2145915118408,396.97336138120227,1 45531U 20025A   26071.98018323  .00133293  00000+0  17958-2 0  9999,2 45531  53.0505  65.4049 0000560  33.9652 326.1394 15.56914204325965
STARLINK-1338,45532,53.0494,0.0005014,15.55481486,397.35443440637573,404.15230566945047,1 45532U 20025B   26072.00002314  .00105579  00000+0  15059-2 0  9993,2 45532  53.0494  68.7211 0005014  22.4763  90.4506 15.55481486  5832
STARLINK-1350,45535,53.074,0.0002203,15.36219362,455.79520345984747,458.80689746488133,1 45535U 20025E   26071.84860865  .00014955  00000+0  42748-3 0  9993,2 45535  53.0740  18.3081 0002203  81.8912 278.2340 15.36219362326645
STARLINK-1362,45538,53.1603,0.0001046,15.29787968,475.72860948357993,477.16258816325353,1 45538U 20025H   26071.46436323 -.00177908  00000+0 -62178-2 0  9990,2 45538  53.1603  88.1075 0001046 192.3405 167.7571 15.29787968325601
STARLINK-1368,45540,53.1584,0.000136,15.30198126,474.28860820882346,476.1527214936632,1 45540U 20025K   26071.99656103  .00001218  00000+0  53247-4 0  9998,2 45540  53.1584  85.9680 0001360  94.7630 265.3526 15.30198126325679
STARLINK-1371,45542,53.0503,0.0002027,15.47650569,422.22230483779003,424.979729429936,1 45542U 20025M   26071.97737789  .00092933  00000+0  17579-2 0  9998,2 45542  53.0503  73.7123 0002027  17.4731 342.6346 15.47650569325843
STARLINK-1372,45543,53.1604,0.0001301,15.30188884,474.356634570252,476.139885414902,1 45543U 20025N   26071.45082425  .00001509  00000+0  63075-4 0  9995,2 45543  53.1604  88.1970 0001301  93.5384 266.5765 15.30188884324699
STARLINK-1373,45544,53.0499,0.0004979,15.5141343,409.2173186040254,415.9795329410099,1 45544U 20025P   26072.00002314  .00101914  00000+0  16855-2 0  9990,2 45544  53.0499  73.0593 0004979  25.1332  69.3038 15.51413430  5838
STARLINK-1327,45555,53.0472,0.0006647,15.54765799,398.3261971333932,407.3408193270343,1 45555U 20025AA  26071.99642611  .00113802  00000+0  16635-2 0  9994,2 45555  53.0472  50.6610 0006647  72.4669 287.7066 15.54765799326164
STARLINK-1356,45564,53.0517,0.0005949,15.45331091,426.35499859395986,434.4558023420368,1 45564U 20025AK  26071.38328820  .00090195  00000+0  18479-2 0  9997,2 45564  53.0517  61.0279 0005949  43.9903 316.1576 15.45331091325963
STARLINK-1357,45565,53.0533,0.0004327,15.56335068,395.3423727334921,401.20667926809256,1 45565U 20025AL  26071.86229051  .00112889  00000+0  15586-2 0  9998,2 45565  53.0533  22.6581 0004327 110.7286 249.4189 15.56335068326551
STARLINK-1361,45567,53.05,0.0007715,15.4829082,416.4796853928774,426.9718736616878,1 45567U 20025AN  26071.98227374  .00086630  00000+0  16029-2 0  9996,2 45567  53.0500  58.1582 0007715  45.4146 314.7490 15.48290820326069
STARLINK-1363,45568,53.0419,0.0007882,15.7751983,332.1770172006427,342.76350048348104,1 45568U 20025AP  26071.86582432  .00125802  00000+0  73375-3 0  9996,2 45568  53.0419  21.8456 0007882  70.2730 289.9139 15.77519830326550
STARLINK-1366,45569,53.0434,0.0008245,15.76472978,334.9034462369509,345.9823845174087,1 45569U 20025AQ  26071.24898394  .00115088  00000+0  70422-3 0  9991,2 45569  53.0434  25.7244 0008245  68.8592 291.3308 15.76472978326442
STARLINK-1376,45570,53.1615,0.0001387,15.29950563,475.0092812794246,476.9106077718361,1 45570U 20025AR  26071.26697791  .00048007  00000+0  16351-2 0  9999,2 45570  53.1615  65.8367 0001387 113.7217 246.3929 15.29950563325897
STARLINK-1320,45572,53.0492,0.0006914,15.69250163,356.38348019623663,365.70241823000833,1 45572U 20025AT  26071.99157484  .00080840  00000+0  67757-3 0  9999,2 45572  53.0492 329.4285 0006914  66.4810 293.6932 15.69250163327325
STARLINK-1321,45573,53.0498,0.000531,15.4888965,416.36323320691463,423.58282605838394,1 45573U 20025AU  26071.33986215  .00106092  00000+0  19169-2 0  9991,2 45573  53.0498  45.7991 0005310  56.8435 303.3081 15.48889650325877
STARLINK-1331,45578,53.0533,0.0005105,15.48915296,416.4275932414039,423.36838696630093,1 45578U 20025AZ  26071.92821148  .00093963  00000+0  16998-2 0  9993,2 45578  53.0533  49.6587 0005105  95.4220 264.7370 15.48915296326181
STARLINK-1333,45580,53.1597,0.0001296,15.30178145,474.3921224012556,476.16852817196923,1 45580U 20025BB  26071.24065112  .00002779  00000+0  10598-3 0  9998,2 45580  53.1597  65.9590 0001296  96.2370 263.8779 15.30178145325897
STARLINK-1335,45581,53.1592,0.0001304,15.29358225,476.8356055915774,478.62361560362115,1 45581U 20025BC  26071.38239508  .00000410  00000+0  26526-4 0  9995,2 45581  53.1592  62.5621 0001304  84.9505 275.1644 15.29358225325945
STARLINK-1337,45582,53.0532,0.0005122,15.58531374,388.4391322916472,395.3743651078148,1 45582U 20025BD  26071.95567560  .00068492  00000+0  87836-3 0  9995,2 45582  53.0532  45.8899 0005122  89.9554 270.2044 15.58531374326223
STARLINK-1347,45586,53.0458,0.0005703,15.54931989,398.48342423145823,406.2172480870813,1 45586U 20025BH  26072.00002314  .00093875  00000+0  13689-2 0  9994,2 45586  53.0458  13.4968 0005703  75.1744 143.2454 15.54931989  5832
STARLINK-1364,45589,53.0506,0.0007952,15.50242088,410.61594126831096,421.4213664201843,1 45589U 20025BL  26072.00002314  .00084481  00000+0  14601-2 0  9995,2 45589  53.0506  47.3263 0007952  74.0264  54.4550 15.50242088  5769
STARLINK-1365,45590,53.0514,0.0004022,15.4579335,426.3101174459189,431.7858170335667,1 45590U 20025BM  26071.31989228  .00085126  00000+0  17188-2 0  9998,2 45590  53.0514  81.0056 0004022  46.9819 313.1524 15.45793350325694
STARLINK-1443,45660,53.1414,0.0003042,15.2543423,487.39270427499105,491.5709635735511,1 45660U 20035D   26071.33611778  .00032321  00000+0  12697-2 0  9990,2 45660  53.1414  52.7026 0003042  67.9440 292.1881 15.25434230319162
STARLINK-1446,45663,53.0253,4.83e-05,15.4305128,436.7808489606459,437.4392018232984,1 45663U 20035G   26071.98499753  .00021078  00000+0  47801-3 0  9994,2 45663  53.0253 343.7238 0000483 312.9832  47.1132 15.43051280320188
STARLINK-1448,45665,53.0496,0.0008129,15.5311185,402.13064450387174,413.1629718191807,1 45665U 20035J   26071.99804598  .00140725  00000+0  21746-2 0  9994,2 45665  53.0496  36.7969 0008129  90.6132 269.5809 15.53111850319435
STARLINK-1451,45668,53.0532,0.0001764,15.10228659,534.2825007580641,536.7216326207918,1 45668U 20035M   26071.32801700  .00024134  00000+0  14721-2 0  9996,2 45668  53.0532  54.1495 0001764  45.6533 314.4602 15.10228659319148
STARLINK-1452,45669,53.0324,0.0007369,15.45659925,424.4231998090172,434.4562063540179,1 45669U 20035N   26071.97888253  .00091683  00000+0  18562-2 0  9996,2 45669  53.0324   6.0549 0007369  71.8733 288.3075 15.45659925319879
STARLINK-1453,45670,53.0487,0.0006327,15.53342152,402.6831335014358,411.26901558596273,1 45670U 20035P   26071.98863933  .00122220  00000+0  18792-2 0  9994,2 45670  53.0487 357.4278 0006327  65.9403 294.2267 15.53342152319884
STARLINK-1454,45671,53.0506,0.0008386,15.51639624,406.2442952640513,417.6326098130494,1 45671U 20035Q   26071.19936462  .00142282  00000+0  23175-2 0  9997,2 45671  53.0506  40.7975 0008386  71.9490 288.2432 15.51639624319308
STARLINK-1456,45673,53.0502,0.0001694,15.50292028,414.7218397586721,417.023650260282,1 45673U 20035S   26071.90664929  .00034368  00000+0  60204-3 0  9994,2 45673  53.0502  30.8844 0001694 102.3916 257.7281 15.50292028319527
STARLINK-1457,45674,53.0472,0.0008908,15.79524687,325.80920486619834,337.76360440389635,1 45674U 20035T   26072.00002314  .00112374  00000+0  59993-3 0  9998,2 45674  53.0472   5.8440 0008908  84.4790 150.6043 15.79524687  5993
